start=new Date('2022-07-04T00:00:00.000Z').valueOf();
sats=[{"GP_ID":"207359224","TLE_LINE1":"1 52139U 22029BD  22184.91667824  .00025890  00000-0  16404-2 0  9996","COUNTRY_CODE":"US","ARG_OF_PERICENTER":"60.0001","MEAN_ANOMALY":"23.3138","APOAPSIS":"541.038","INCLINATION":"53.2153","EPOCH":"2022-07-03T22:00:00.999936","MEAN_MOTION":"15.08804706","SEMIMAJOR_AXIS":"6917.988","MEAN_ELEMENT_THEORY":"SGP4","CENTER_NAME":"EARTH","NORAD_CAT_ID":"52139","MEAN_MOTION_DOT":"0.00025890","PERIAPSIS":"538.668","LAUNCH_DATE":"2022-03-19","PERIOD":"95.440","RCS_SIZE":"LARGE","MEAN_MOTION_DDOT":"0.0000000000000","DECAY_DATE":null,"OBJECT_TYPE":"PAYLOAD","SITE":"AFETR","BSTAR":"0.00164040000000","ECCENTRICITY":"0.00017130","REV_AT_EPOCH":"130","TLE_LINE2":"2 52139  53.2153 356.0368 0001713  60.0001  23.3138 15.08804706  1304","RA_OF_ASC_NODE":"356.0368","ELEMENT_SET_NO":"999","TIME_SYSTEM":"UTC","FILE":"3507292","REF_FRAME":"TEME","CLASSIFICATION_TYPE":"U","OBJECT_NAME":"STARLINK-3730","EPHEMERIS_TYPE":"0","OBJECT_ID":"2022-029BD"},{"TLE_LINE1":"1 52140U 22029BE  22184.91667824 -.00660364  00000-0 -43447-1 0  9997","GP_ID":"207359109","ARG_OF_PERICENTER":"68.8188","COUNTRY_CODE":"US","MEAN_ANOMALY":"328.6968","MEAN_MOTION":"15.09557097","EPOCH":"2022-07-03T22:00:00.999936","INCLINATION":"53.2174","APOAPSIS":"538.516","MEAN_ELEMENT_THEORY":"SGP4","SEMIMAJOR_AXIS":"6915.689","NORAD_CAT_ID":"52140","CENTER_NAME":"EARTH","MEAN_MOTION_DOT":"-0.00660364","PERIAPSIS":"536.592","LAUNCH_DATE":"2022-03-19","DECAY_DATE":null,"RCS_SIZE":"LARGE","MEAN_MOTION_DDOT":"0.0000000000000","PERIOD":"95.392","SITE":"AFETR","OBJECT_TYPE":"PAYLOAD","RA_OF_ASC_NODE":"346.0354","TLE_LINE2":"2 52140  53.2174 346.0354 0001391  68.8188 328.6968 15.09557097  1308","REV_AT_EPOCH":"130","ELEMENT_SET_NO":"999","ECCENTRICITY":"0.00013910","BSTAR":"-0.04344700000000","TIME_SYSTEM":"UTC","REF_FRAME":"TEME","FILE":"3507292","OBJECT_ID":"2022-029BE","EPHEMERIS_TYPE":"0","OBJECT_NAME":"STARLINK-3682","CLASSIFICATION_TYPE":"U"},{"ARG_OF_PERICENTER":"47.2762","COUNTRY_CODE":"US","MEAN_ANOMALY":"11.0176","TLE_LINE1":"1 52261U 22041A   22184.91667824 -.00029341  00000-0 -18334-2 0  9997","GP_ID":"207359137","NORAD_CAT_ID":"52261","CENTER_NAME":"EARTH","MEAN_MOTION_DOT":"-0.00029341","MEAN_MOTION":"15.08829873","EPOCH":"2022-07-03T22:00:00.999936","INCLINATION":"53.2141","APOAPSIS":"541.181","MEAN_ELEMENT_THEORY":"SGP4","SEMIMAJOR_AXIS":"6917.911","DECAY_DATE":null,"PERIOD":"95.438","RCS_SIZE":"LARGE","MEAN_MOTION_DDOT":"0.0000000000000","SITE":"AFETR","OBJECT_TYPE":"PAYLOAD","PERIAPSIS":"538.371","LAUNCH_DATE":"2022-04-21","REF_FRAME":"TEME","FILE":"3507292","OBJECT_ID":"2022-041A","EPHEMERIS_TYPE":"0","OBJECT_NAME":"STARLINK-3810","CLASSIFICATION_TYPE":"U","REV_AT_EPOCH":"130","TLE_LINE2":"2 52261  53.2141  26.0426 0002031  47.2762  11.0176 15.08829873  1309","RA_OF_ASC_NODE":"26.0426","ELEMENT_SET_NO":"999","ECCENTRICITY":"0.00020310","BSTAR":"-0.00183340000000","TIME_SYSTEM":"UTC"},{"TIME_SYSTEM":"UTC","TLE_LINE2":"2 52262  53.2145  26.0424 0001913  48.7749 344.2917 15.08822335  1301","ELEMENT_SET_NO":"999","RA_OF_ASC_NODE":"26.0424","REV_AT_EPOCH":"130","BSTAR":"0.00039216000000","ECCENTRICITY":"0.00019130","OBJECT_ID":"2022-041B","EPHEMERIS_TYPE":"0","OBJECT_NAME":"STARLINK-3761","CLASSIFICATION_TYPE":"U","REF_FRAME":"TEME","FILE":"3507292","LAUNCH_DATE":"2022-04-21","PERIAPSIS":"538.476","SITE":"AFETR","OBJECT_TYPE":"PAYLOAD","DECAY_DATE":null,"RCS_SIZE":"LARGE","MEAN_MOTION_DDOT":"0.0000000000000","PERIOD":"95.439","MEAN_ELEMENT_THEORY":"SGP4","SEMIMAJOR_AXIS":"6917.934","MEAN_MOTION":"15.08822335","EPOCH":"2022-07-03T22:00:00.999936","INCLINATION":"53.2145","APOAPSIS":"541.123","MEAN_MOTION_DOT":"0.00005956","NORAD_CAT_ID":"52262","CENTER_NAME":"EARTH","TLE_LINE1":"1 52262U 22041B   22184.91667824  .00005956  00000-0  39216-3 0  9995","GP_ID":"207359774","MEAN_ANOMALY":"344.2917","ARG_OF_PERICENTER":"48.7749","COUNTRY_CODE":"US"},{"PERIAPSIS":"537.969","LAUNCH_DATE":"2022-04-21","RCS_SIZE":"LARGE","MEAN_MOTION_DDOT":"0.0000000000000","PERIOD":"95.438","DECAY_DATE":null,"OBJECT_TYPE":"PAYLOAD","SITE":"AFETR","TLE_LINE2":"2 52263  53.2140  26.0437 0002565  60.8979 337.3070 15.08840673  1303","ELEMENT_SET_NO":"999","RA_OF_ASC_NODE":"26.0437","REV_AT_EPOCH":"130","ECCENTRICITY":"0.00025650","BSTAR":"-0.00041341000000","TIME_SYSTEM":"UTC","REF_FRAME":"TEME","FILE":"3507292","OBJECT_ID":"2022-041C","OBJECT_NAME":"STARLINK-3786","EPHEMERIS_TYPE":"0","CLASSIFICATION_TYPE":"U","TLE_LINE1":"1 52263U 22041C   22184.91667824 -.00006862  00000-0 -41341-3 0  9997","GP_ID":"207359236","COUNTRY_CODE":"US","ARG_OF_PERICENTER":"60.8979","MEAN_ANOMALY":"337.3070","EPOCH":"2022-07-03T22:00:00.999936","MEAN_MOTION":"15.08840673","APOAPSIS":"541.518","INCLINATION":"53.2140","SEMIMAJOR_AXIS":"6917.878","MEAN_ELEMENT_THEORY":"SGP4","NORAD_CAT_ID":"52263","CENTER_NAME":"EARTH","MEAN_MOTION_DOT":"-0.00006862"},{"CENTER_NAME":"EARTH","NORAD_CAT_ID":"52264","MEAN_MOTION_DOT":"0.00006556","INCLINATION":"53.2139","APOAPSIS":"541.238","MEAN_MOTION":"15.08822788","EPOCH":"2022-07-03T22:00:00.999936","MEAN_ELEMENT_THEORY":"SGP4","SEMIMAJOR_AXIS":"6917.933","ARG_OF_PERICENTER":"46.6242","COUNTRY_CODE":"US","MEAN_ANOMALY":"31.6507","GP_ID":"207359322","TLE_LINE1":"1 52264U 22041D   22184.91667824  .00006556  00000-0  42981-3 0  9997","FILE":"3507292","REF_FRAME":"TEME","CLASSIFICATION_TYPE":"U","OBJECT_NAME":"STARLINK-3795","OBJECT_ID":"2022-041D","EPHEMERIS_TYPE":"0","ECCENTRICITY":"0.00020820","BSTAR":"0.00042981000000","REV_AT_EPOCH":"130","TLE_LINE2":"2 52264  53.2139  26.0421 0002082  46.6242  31.6507 15.08822788  1300","RA_OF_ASC_NODE":"26.0421","ELEMENT_SET_NO":"999","TIME_SYSTEM":"UTC","DECAY_DATE":null,"RCS_SIZE":"LARGE","MEAN_MOTION_DDOT":"0.0000000000000","PERIOD":"95.439","SITE":"AFETR","OBJECT_TYPE":"PAYLOAD","PERIAPSIS":"538.358","LAUNCH_DATE":"2022-04-21"},{"EPOCH":"2022-07-03T22:00:00.999936","MEAN_MOTION":"15.08830577","APOAPSIS":"541.143","INCLINATION":"53.2130","SEMIMAJOR_AXIS":"6917.909","MEAN_ELEMENT_THEORY":"SGP4","NORAD_CAT_ID":"52265","CENTER_NAME":"EARTH","MEAN_MOTION_DOT":"-0.00031323","TLE_LINE1":"1 52265U 22041E   22184.91667824 -.00031323  00000-0 -19590-2 0  9999","GP_ID":"207359490","COUNTRY_CODE":"US","ARG_OF_PERICENTER":"45.0130","MEAN_ANOMALY":"53.2843","TLE_LINE2":"2 52265  53.2130  26.0405 0001978  45.0130  53.2843 15.08830577  1304","RA_OF_ASC_NODE":"26.0405","REV_AT_EPOCH":"130","ELEMENT_SET_NO":"999","ECCENTRICITY":"0.00019780","BSTAR":"-0.00195900000000","TIME_SYSTEM":"UTC","REF_FRAME":"TEME","FILE":"3507292","OBJECT_NAME":"STARLINK-3740","OBJECT_ID":"2022-041E","EPHEMERIS_TYPE":"0","CLASSIFICATION_TYPE":"U","PERIAPSIS":"538.406","LAUNCH_DATE":"2022-04-21","RCS_SIZE":"LARGE","MEAN_MOTION_DDOT":"0.0000000000000","PERIOD":"95.438","DECAY_DATE":null,"OBJECT_TYPE":"PAYLOAD","SITE":"AFETR"},{"CLASSIFICATION_TYPE":"U","OBJECT_NAME":"STARLINK-3739","EPHEMERIS_TYPE":"0","OBJECT_ID":"2022-041F","FILE":"3507292","REF_FRAME":"TEME","TIME_SYSTEM":"UTC","ECCENTRICITY":"0.00017500","BSTAR":"-0.00011519000000","TLE_LINE2":"2 52266  53.2133  26.0410 0001750  49.3031  68.9552 15.08825545  1308","REV_AT_EPOCH":"130","RA_OF_ASC_NODE":"26.0410","ELEMENT_SET_NO":"999","OBJECT_TYPE":"PAYLOAD","SITE":"AFETR","RCS_SIZE":"LARGE","MEAN_MOTION_DDOT":"0.0000000000000","PERIOD":"95.438","DECAY_DATE":null,"LAUNCH_DATE":"2022-04-21","PERIAPSIS":"538.579","MEAN_MOTION_DOT":"-0.00002120","CENTER_NAME":"EARTH","NORAD_CAT_ID":"52266","SEMIMAJOR_AXIS":"6917.925","MEAN_ELEMENT_THEORY":"SGP4","APOAPSIS":"541.000","INCLINATION":"53.2133","EPOCH":"2022-07-03T22:00:00.999936","MEAN_MOTION":"15.08825545","MEAN_ANOMALY":"68.9552","COUNTRY_CODE":"US","ARG_OF_PERICENTER":"49.3031","TLE_LINE1":"1 52266U 22041F   22184.91667824 -.00002120  00000-0 -11519-3 0  9997","GP_ID":"207359424"},{"SEMIMAJOR_AXIS":"6917.942","MEAN_ELEMENT_THEORY":"SGP4","APOAPSIS":"541.140","INCLINATION":"53.2129","EPOCH":"2022-07-03T22:00:00.999936","MEAN_MOTION":"15.08820007","MEAN_MOTION_DOT":"-0.00016084","CENTER_NAME":"EARTH","NORAD_CAT_ID":"52267","TLE_LINE1":"1 52267U 22041G   22184.91667824 -.00016084  00000-0 -99522-3 0  9992","GP_ID":"207359589","MEAN_ANOMALY":"86.2027","COUNTRY_CODE":"US","ARG_OF_PERICENTER":"52.1127","TIME_SYSTEM":"UTC","BSTAR":"-0.00099522000000","ECCENTRICITY":"0.00019280","TLE_LINE2":"2 52267  53.2129  26.0403 0001928  52.1127  86.2027 15.08820007  1309","RA_OF_ASC_NODE":"26.0403","REV_AT_EPOCH":"130","ELEMENT_SET_NO":"999","CLASSIFICATION_TYPE":"U","EPHEMERIS_TYPE":"0","OBJECT_NAME":"STARLINK-3748","OBJECT_ID":"2022-041G","FILE":"3507292","REF_FRAME":"TEME","LAUNCH_DATE":"2022-04-21","PERIAPSIS":"538.473","OBJECT_TYPE":"PAYLOAD","SITE":"AFETR","RCS_SIZE":"LARGE","PERIOD":"95.439","MEAN_MOTION_DDOT":"0.0000000000000","DECAY_DATE":null},{"TLE_LINE1":"1 52268U 22041H   22184.91667824 -.00012877  00000-0 -79272-3 0  9999","GP_ID":"207359674","COUNTRY_CODE":"US","ARG_OF_PERICENTER":"49.5350","MEAN_ANOMALY":"148.7509","APOAPSIS":"540.868","INCLINATION":"53.2125","EPOCH":"2022-07-03T22:00:00.999936","MEAN_MOTION":"15.08824296","SEMIMAJOR_AXIS":"6917.928","MEAN_ELEMENT_THEORY":"SGP4","CENTER_NAME":"EARTH","NORAD_CAT_ID":"52268","MEAN_MOTION_DOT":"-0.00012877","PERIAPSIS":"538.719","LAUNCH_DATE":"2022-04-21","RCS_SIZE":"LARGE","MEAN_MOTION_DDOT":"0.0000000000000","PERIOD":"95.439","DECAY_DATE":null,"OBJECT_TYPE":"PAYLOAD","SITE":"AFETR","BSTAR":"-0.00079272000000","ECCENTRICITY":"0.00015530","ELEMENT_SET_NO":"999","TLE_LINE2":"2 52268  53.2125  26.0395 0001553  49.5350 148.7509 15.08824296  1301","RA_OF_ASC_NODE":"26.0395","REV_AT_EPOCH":"130","TIME_SYSTEM":"UTC","FILE":"3507292","REF_FRAME":"TEME","CLASSIFICATION_TYPE":"U","OBJECT_NAME":"STARLINK-3746","OBJECT_ID":"2022-041H","EPHEMERIS_TYPE":"0"}];
